[{"OBJECT_NAME":"STARLINK-34140","OBJECT_ID":"2025-107X","EPOCH":"2026-03-09T09:17:18.083904","MEAN_MOTION":15.27598758,"ECCENTRICITY":9.457e-5,"INCLINATION":42.9957,"RA_OF_ASC_NODE":203.2944,"ARG_OF_PERICENTER":152.0067,"MEAN_ANOMALY":208.0836,"EPHEMERIS_TYPE":0,"CLASSIFICATION_TYPE":"U","NORAD_CAT_ID":64085,"ELEMENT_SET_NO":999,"REV_AT_EPOCH":4605,"BSTAR":0.00082798546,"MEAN_MOTION_DOT":0.00022605,"MEAN_MOTION_DDOT":0},{"OBJECT_NAME":"BANDWAGON-4 OBJECT Q","OBJECT_ID":"2025-248Q","EPOCH":"2026-03-08T23:44:19.819392","MEAN_MOTION":15.23978167,"ECCENTRICITY":0.00112804,"INCLINATION":45.4076,"RA_OF_ASC_NODE":295.4821,"ARG_OF_PERICENTER":209.4727,"MEAN_ANOMALY":150.5526,"EPHEMERIS_TYPE":0,"CLASSIFICATION_TYPE":"U","NORAD_CAT_ID":66307,"ELEMENT_SET_NO":999,"REV_AT_EPOCH":1930,"BSTAR":0.0009224217,"MEAN_MOTION_DOT":0.00022547,"MEAN_MOTION_DDOT":0}]
